{
    "week": 291,
    "satellites": [
        {
            "Name": "GSAT0218 (GALILEO 22)",
            "Line1": "1 43058U 17079D   24308.47261530  .00000004  00000+0  00000+0 0  9991",
            "Line2": "2 43058  55.2816 237.7608 0004089 286.8752  73.0927  1.70473864 42948",
            "SatelliteNumber": "43058",
            "Classification": "U",
            "LaunchYear": "17",
            "LaunchNumber": "079",
            "PieceOfLaunch": "D",
            "EpochYear": "24",
            "EpochDay": 308.4726153,
            "FirstDerivativeMeanMotion": 4e-08,
            "SecondDerivativeMeanMotion": "00000+0",
            "BSTAR": "00000+0",
            "SetNumber": "999",
            "Inclination": 55.2816,
            "RAAN": 237.7608,
            "Eccentricity": 0.0004089,
            "ArgumentOfPerigee": 286.8752,
            "MeanAnomaly": 73.0927,
            "MeanMotion": 1.70473864,
            "RevolutionNumber": "4294"
        },
        {
            "Name": "GSAT0221 (GALILEO 25)",
            "Line1": "1 43564U 18060A   24308.96037686 -.00000070  00000+0  00000+0 0  9995",
            "Line2": "2 43564  57.2966 357.7058 0005585 268.5104  91.4960  1.70476123 39106",
            "SatelliteNumber": "43564",
            "Classification": "U",
            "LaunchYear": "18",
            "LaunchNumber": "060",
            "PieceOfLaunch": "A",
            "EpochYear": "24",
            "EpochDay": 308.96037686,
            "FirstDerivativeMeanMotion": -7e-07,
            "SecondDerivativeMeanMotion": "00000+0",
            "BSTAR": "00000+0",
            "SetNumber": "999",
            "Inclination": 57.2966,
            "RAAN": 357.7058,
            "Eccentricity": 0.0005585,
            "ArgumentOfPerigee": 268.5104,
            "MeanAnomaly": 91.496,
            "MeanMotion": 1.70476123,
            "RevolutionNumber": "3910"
        },
        {
            "Name": "GSAT0222 (GALILEO 26)",
            "Line1": "1 43565U 18060B   24308.59250922 -.00000071  00000+0  00000+0 0  9996",
            "Line2": "2 43565  57.3003 357.7179 0005441 244.7427 115.2715  1.70475911 39140",
            "SatelliteNumber": "43565",
            "Classification": "U",
            "LaunchYear": "18",
            "LaunchNumber": "060",
            "PieceOfLaunch": "B",
            "EpochYear": "24",
            "EpochDay": 308.59250922,
            "FirstDerivativeMeanMotion": -7.1e-07,
            "SecondDerivativeMeanMotion": "00000+0",
            "BSTAR": "00000+0",
            "SetNumber": "999",
            "Inclination": 57.3003,
            "RAAN": 357.7179,
            "Eccentricity": 0.0005441,
            "ArgumentOfPerigee": 244.7427,
            "MeanAnomaly": 115.2715,
            "MeanMotion": 1.70475911,
            "RevolutionNumber": "3914"
        },
        {
            "Name": "GSAT0219 (GALILEO 23)",
            "Line1": "1 43566U 18060C   24307.05443472 -.00000076  00000+0  00000+0 0  9996",
            "Line2": "2 43566  57.2985 357.7610 0005200 271.7378  88.2732  1.70476190 39099",
            "SatelliteNumber": "43566",
            "Classification": "U",
            "LaunchYear": "18",
            "LaunchNumber": "060",
            "PieceOfLaunch": "C",
            "EpochYear": "24",
            "EpochDay": 307.05443472,
            "FirstDerivativeMeanMotion": -7.6e-07,
            "SecondDerivativeMeanMotion": "00000+0",
            "BSTAR": "00000+0",
            "SetNumber": "999",
            "Inclination": 57.2985,
            "RAAN": 357.761,
            "Eccentricity": 0.00052,
            "ArgumentOfPerigee": 271.7378,
            "MeanAnomaly": 88.2732,
            "MeanMotion": 1.7047619,
            "RevolutionNumber": "3909"
        },
        {
            "Name": "GSAT0220 (GALILEO 24)",
            "Line1": "1 43567U 18060D   24307.27515567 -.00000075  00000+0  00000+0 0  9995",
            "Line2": "2 43567  57.2994 357.7558 0004702 266.2753  93.7417  1.70476309 39085",
            "SatelliteNumber": "43567",
            "Classification": "U",
            "LaunchYear": "18",
            "LaunchNumber": "060",
            "PieceOfLaunch": "D",
            "EpochYear": "24",
            "EpochDay": 307.27515567,
            "FirstDerivativeMeanMotion": -7.5e-07,
            "SecondDerivativeMeanMotion": "00000+0",
            "BSTAR": "00000+0",
            "SetNumber": "999",
            "Inclination": 57.2994,
            "RAAN": 357.7558,
            "Eccentricity": 0.0004702,
            "ArgumentOfPerigee": 266.2753,
            "MeanAnomaly": 93.7417,
            "MeanMotion": 1.70476309,
            "RevolutionNumber": "3908"
        },
        {
            "Name": "GSAT0223 (GALILEO 27)",
            "Line1": "1 49809U 21116A   24307.12201743 -.00000076  00000+0  00000+0 0  9999",
            "Line2": "2 49809  57.2898 357.6532 0004154 226.2424 130.3125  1.70476437 18089",
            "SatelliteNumber": "49809",
            "Classification": "U",
            "LaunchYear": "21",
            "LaunchNumber": "116",
            "PieceOfLaunch": "A",
            "EpochYear": "24",
            "EpochDay": 307.12201743,
            "FirstDerivativeMeanMotion": -7.6e-07,
            "SecondDerivativeMeanMotion": "00000+0",
            "BSTAR": "00000+0",
            "SetNumber": "999",
            "Inclination": 57.2898,
            "RAAN": 357.6532,
            "Eccentricity": 0.0004154,
            "ArgumentOfPerigee": 226.2424,
            "MeanAnomaly": 130.3125,
            "MeanMotion": 1.70476437,
            "RevolutionNumber": "1808"
        },
        {
            "Name": "GSAT0224 (GALILEO 28)",
            "Line1": "1 49810U 21116B   24308.12328456 -.00000073  00000+0  00000+0 0  9990",
            "Line2": "2 49810  57.2907 357.6249 0003369 227.4109 136.1695  1.70476398 18135",
            "SatelliteNumber": "49810",
            "Classification": "U",
            "LaunchYear": "21",
            "LaunchNumber": "116",
            "PieceOfLaunch": "B",
            "EpochYear": "24",
            "EpochDay": 308.12328456,
            "FirstDerivativeMeanMotion": -7.3e-07,
            "SecondDerivativeMeanMotion": "00000+0",
            "BSTAR": "00000+0",
            "SetNumber": "999",
            "Inclination": 57.2907,
            "RAAN": 357.6249,
            "Eccentricity": 0.0003369,
            "ArgumentOfPerigee": 227.4109,
            "MeanAnomaly": 136.1695,
            "MeanMotion": 1.70476398,
            "RevolutionNumber": "1813"
        },
        {
            "Name": "GSAT0225 (GALILEO 29)",
            "Line1": "1 59598U 24079A   24307.84531435  .00000071  00000+0  00000+0 0  9993",
            "Line2": "2 59598  54.7735 117.6280 0002690 159.7824  24.1262  1.70474738  3233",
            "SatelliteNumber": "59598",
            "Classification": "U",
            "LaunchYear": "24",
            "LaunchNumber": "079",
            "PieceOfLaunch": "A",
            "EpochYear": "24",
            "EpochDay": 307.84531435,
            "FirstDerivativeMeanMotion": 7.1e-07,
            "SecondDerivativeMeanMotion": "00000+0",
            "BSTAR": "00000+0",
            "SetNumber": "999",
            "Inclination": 54.7735,
            "RAAN": 117.628,
            "Eccentricity": 0.000269,
            "ArgumentOfPerigee": 159.7824,
            "MeanAnomaly": 24.1262,
            "MeanMotion": 1.70474738,
            "RevolutionNumber": "323"
        },
        {
            "Name": "GSAT0227 (GALILEO 30)",
            "Line1": "1 59600U 24079C   24307.14244691  .00000071  00000+0  00000+0 0  9995",
            "Line2": "2 59600  54.7676 117.6477 0003868 115.2057 244.8576  1.70474612  3276",
            "SatelliteNumber": "59600",
            "Classification": "U",
            "LaunchYear": "24",
            "LaunchNumber": "079",
            "PieceOfLaunch": "C",
            "EpochYear": "24",
            "EpochDay": 307.14244691,
            "FirstDerivativeMeanMotion": 7.1e-07,
            "SecondDerivativeMeanMotion": "00000+0",
            "BSTAR": "00000+0",
            "SetNumber": "999",
            "Inclination": 54.7676,
            "RAAN": 117.6477,
            "Eccentricity": 0.0003868,
            "ArgumentOfPerigee": 115.2057,
            "MeanAnomaly": 244.8576,
            "MeanMotion": 1.70474612,
            "RevolutionNumber": "327"
        },
        {
            "Name": "GSAT0232 (GALILEO 32)",
            "Line1": "1 61182U 24167A   24301.00687480 -.00000036  00000+0  00000+0 0  9999",
            "Line2": "2 61182  55.3980 237.7111 0016456 274.7209  85.0739  1.73176900   674",
            "SatelliteNumber": "61182",
            "Classification": "U",
            "LaunchYear": "24",
            "LaunchNumber": "167",
            "PieceOfLaunch": "A",
            "EpochYear": "24",
            "EpochDay": 301.0068748,
            "FirstDerivativeMeanMotion": -3.6e-07,
            "SecondDerivativeMeanMotion": "00000+0",
            "BSTAR": "00000+0",
            "SetNumber": "999",
            "Inclination": 55.398,
            "RAAN": 237.7111,
            "Eccentricity": 0.0016456,
            "ArgumentOfPerigee": 274.7209,
            "MeanAnomaly": 85.0739,
            "MeanMotion": 1.731769,
            "RevolutionNumber": "67"
        }
    ]
}